{"type": "FeatureCollection", "features": [{"type": "Feature", "properties": {"wadmkc": "Ujung Bulu", "wadmkd": "Kalumeme", "tipadm": 2, "namobj": null, "kdepum": null}, "geometry": {"type": "Polygon", "coordinates": [[[120.233765662, -5.522800139000026, 0], [120.23369070900003, -5.5226823560000184, 0], [120.233512249, -5.522596695000004, 0], [120.23335520399996, -5.5225681420000114, 0], [120.23310179299995, -5.522582419000003, 0], [120.23273416500001, -5.522675217000028, 0], [120.23187399000005, -5.523074967000014, 0], [120.23107092199996, -5.523488993000001, 0], [120.23018576200002, -5.523985111000002, 0], [120.22997518099999, -5.524010094999994, 0], [120.22983598200005, -5.523992249000003, 0], [120.229541316, -5.523963087000027, 0], [120.22948083300003, -5.524154872999986, 0], [120.22931792700001, -5.525648359999991, 0], [120.22917641599997, -5.526340130999984, 0], [120.22871430199996, -5.5278156499999795, 0], [120.22836765399995, -5.52922479099999, 0], [120.22806370399996, -5.529667733999986, 0], [120.22745217500005, -5.530184200999997, 0], [120.226696103, -5.530758879000018, 0], [120.22589710700004, -5.531373499999972, 0], [120.22556899000006, -5.53184042700002, 0], [120.22541500499995, -5.532537192999996, 0], [120.22469071, -5.533109935000027, 0], [120.22358306000001, -5.533599143999993, 0], [120.22279460100003, -5.53446685199998, 0], [120.22163263899995, -5.535106171999985, 0], [120.22152802200003, -5.535088297000016, 0], [120.22143160099995, -5.53509631999998, 0], [120.22134179199998, -5.535138249999989, 0], [120.22125183200001, -5.535210684999981, 0], [120.22116538900002, -5.5352560189999735, 0], [120.22105205699995, -5.535263964000023, 0], [120.22092021799995, -5.535253178999994, 0], [120.22079533299996, -5.53520176699999, 0], [120.22069069099996, -5.535160614000006, 0], [120.22059452300005, -5.535116113000015, 0], [120.22048832600001, -5.53504445599998, 0], [120.220439424, -5.535017118999974, 0], [120.22029255300004, -5.53496560100001, 0], [120.22015728500003, -5.534964967000008, 0], [120.22008279900001, -5.534983249999982, 0], [120.22003180399997, -5.535040615000014, 0], [120.21999937500004, -5.5351065429999835, 0], [120.21996174699996, -5.5351978549999785, 0], [120.21992567300003, -5.535317973000019, 0], [120.219869174, -5.53546849899999, 0], [120.21979248699995, -5.5355952020000245, 0], [120.21971427999995, -5.5356863239999825, 0], [120.21963611299998, -5.535768979000011, 0], [120.21954938500005, -5.53587530599998, 0], [120.21944752299999, -5.535962928000004, 0], [120.219352534, -5.536026862000028, 0], [120.21923911600004, -5.536053437000021, 0], [120.21913766399996, -5.536052961999985, 0], [120.21903622000002, -5.536050794999994, 0], [120.21882510600005, -5.5359989759999735, 0], [120.21876783100004, -5.535952958999985, 0], [120.21869209600004, -5.535876367000014, 0], [120.21864331100005, -5.535823612999991, 0], [120.21858616999998, -5.535748796999997, 0], [120.21853755899997, -5.535657081000011, 0], [120.21853290299998, -5.5355689570000095, 0], [120.21853672999998, -5.535474098999998, 0], [120.21855735199995, -5.535403038000027, 0], [120.21861190300001, -5.53530841700001, 0], [120.21869699299998, -5.53519191700002, 0], [120.21874302799995, -5.535109110999997, 0], [120.218777273, -5.53501778399999, 0], [120.21880990299996, -5.534911205000014, 0], [120.21880536499998, -5.534795975000009, 0], [120.21877863700001, -5.5347263809999845, 0], [120.21872315899998, -5.534658351000019, 0], [120.21862365599998, -5.534601978000012, 0], [120.21846825700004, -5.534567363000008, 0], [120.21836005800003, -5.5345634679999876, 0], [120.21824340299997, -5.5345612200000005, 0], [120.21814010599996, -5.534592929999974, 0], [120.21806718200003, -5.5346400280000125, 0], [120.21804140300003, -5.534728007000012, 0], [120.21804114099996, -5.534783909999987, 0], [120.21806622300005, -5.5348450199999775, 0], [120.21811492799998, -5.534914717999982, 0], [120.21819222500005, -5.535018424999976, 0], [120.21825102100001, -5.535101724000015, 0], [120.21827255200003, -5.5351967020000075, 0], [120.21826706399997, -5.535286466000002, 0], [120.21823453900004, -5.535371026000007, 0], [120.21821226899999, -5.5354336109999736, 0], [120.21813400500002, -5.535536589000003, 0], [120.21803893699996, -5.535617466000019, 0], [120.21790834900003, -5.535699872999999, 0], [120.21779808400004, -5.535777290999988, 0], [120.21767778399999, -5.535829243000023, 0], [120.21757276799997, -5.535867721999978, 0], [120.21747804200004, -5.535875741999973, 0], [120.21737995599995, -5.535878669999988, 0], [120.217244704, -5.535874647000014, 0], [120.21711451299996, -5.535874034000017, 0], [120.21701470100004, -5.535883732000002, 0], [120.21686746800003, -5.535911845999976, 0], [120.21673874800001, -5.535956982000016, 0], [120.21662509999999, -5.5360326929999815, 0], [120.21655209799997, -5.5360967309999864, 0], [120.21647387500002, -5.536191239999994, 0], [120.21640084499995, -5.536258664999991, 0], [120.21630269000002, -5.536276836000013, 0], [120.21620292499995, -5.536278066000023, 0], [120.21609474299999, -5.536270779999995, 0], [120.21599182700004, -5.536221158999979, 0], [120.215892413, -5.536147845000016, 0], [120.215808219, -5.536072902000001, 0], [120.21575954499997, -5.535994739999978, 0], [120.21573132100002, -5.535884475999978, 0], [120.21570144199995, -5.535765739999988, 0], [120.215668187, -5.535645296999974, 0], [120.21562123199999, -5.535562055000014, 0], [120.21555729700003, -5.535493984000027, 0], [120.21544942499997, -5.535420629999976, 0], [120.21533965699996, -5.535389617000021, 0], [120.21522129799996, -5.535389060999989, 0], [120.21516195699996, -5.535424356000021, 0], [120.21509055199999, -5.5355070429999955, 0], [120.21503260300005, -5.535605035999993, 0], [120.21498147399996, -5.535691197999995, 0], [120.21493538799996, -5.535782469000026, 0], [120.214843471, -5.535912497000027, 0], [120.21476863700002, -5.536005323999973, 0], [120.214697344, -5.536064290000013, 0], [120.21462609800005, -5.536113085000011, 0], [120.21453985400001, -5.5361160680000125, 0], [120.21447580899996, -5.536071714999991, 0], [120.21443366699998, -5.536042720000012, 0], [120.21439844300005, -5.535983251999994, 0], [120.21432954099998, -5.53589144, 0], [120.21429100600005, -5.535816711999985, 0], [120.21424588800005, -5.535701291999999, 0], [120.21420903900002, -5.535626572000012, 0], [120.21416039799999, -5.535543329999996, 0], [120.21406282099997, -5.535437829999978, 0], [120.21396842000001, -5.535376392999979, 0], [120.21388062300002, -5.535348872999975, 0], [120.21378089799998, -5.535339927999985, 0], [120.21353575499995, -5.535333696000009, 0], [120.21343077899996, -5.5353636990000155, 0], [120.21330369299994, -5.535420704999979, 0], [120.21320361999994, -5.535488002000022, 0], [120.21312026299995, -5.535594343000014, 0], [120.21304529400004, -5.535715975000016, 0], [120.21299232800004, -5.535834320999982, 0], [120.21295441400002, -5.535986622999985, 0], [120.21291822600006, -5.53613046800001, 0], [120.21287324000002, -5.536348807000024, 0], [120.21285748800005, -5.536463939999976, 0], [120.21282639399999, -5.536604420000003, 0], [120.21277504900002, -5.536736329000007, 0], [120.21273212100004, -5.536875053000017, 0], [120.21268587700001, -5.537001898000028, 0], [120.21265821199995, -5.537132228000019, 0], [120.21263990800003, -5.537195295000004, 0], [120.21335895699997, -5.538029547000008, 0], [120.21377417999997, -5.538402205000011, 0], [120.21434794499999, -5.53883313, 0], [120.21453235299998, -5.539213844000017, 0], [120.214663223, -5.539493430999983, 0], [120.21487261599998, -5.53979681200002, 0], [120.21501538400003, -5.540025239999977, 0], [120.21505107500002, -5.540296499000021, 0], [120.21501538400003, -5.5404678200000035, 0], [120.21502966100002, -5.540646279999976, 0], [120.21517956599996, -5.540831878000006, 0], [120.21495595700003, -5.541005579, 0], [120.21464067800002, -5.541362498000012, 0], [120.21439083400003, -5.541713468000012, 0], [120.21409578099997, -5.542063249000023, 0], [120.21378050199996, -5.542443961999993, 0], [120.21391044699999, -5.542573633000018, 0], [120.21427764299995, -5.542934022999987, 0], [120.21456582300004, -5.542757209000001, 0], [120.21530591600003, -5.543333593999989, 0], [120.21549191300005, -5.543081233999999, 0], [120.21600163899996, -5.543431307999981, 0], [120.21615010000005, -5.543354899999997, 0], [120.21633029999998, -5.543215299999986, 0], [120.21647499999995, -5.5430332999999905, 0], [120.21658060000004, -5.542934500000001, 0], [120.21663779999994, -5.542883200000006, 0], [120.2167657, -5.5427589999999896, 0], [120.21693330000005, -5.542621499999996, 0], [120.21709310000006, -5.542513900000017, 0], [120.21720790699999, -5.542397687000005, 0], [120.21724819999997, -5.542356900000016, 0], [120.21727512200005, -5.542323918000022, 0], [120.21738860000005, -5.542184899999995, 0], [120.21748079999998, -5.542036499999995, 0], [120.2174976, -5.542013499999996, 0], [120.21751749999999, -5.542000499999972, 0], [120.21760207199998, -5.542014693999988, 0], [120.21761700000002, -5.542017199999975, 0], [120.2176561, -5.542011100000025, 0], [120.2176561, -5.542016799999999, 0], [120.21765119999998, -5.542029200000002, 0], [120.21776729999999, -5.541999499999974, 0], [120.21785850000003, -5.541897800000015, 0], [120.21799209999995, -5.5417712999999935, 0], [120.21812650000004, -5.541674600000022, 0], [120.21822940000004, -5.5415707000000225, 0], [120.21835090000002, -5.541469600000028, 0], [120.21838690000004, -5.541431799999998, 0], [120.21840502700002, -5.541409836000014, 0], [120.21847290000005, -5.541327599999988, 0], [120.2186408, -5.54121600000002, 0], [120.21876499999996, -5.541136100000017, 0], [120.21890194399998, -5.541064569000014, 0], [120.21891719999996, -5.54105659999999, 0], [120.21907220000003, -5.54095749999999, 0], [120.21925109999995, -5.5408701000000065, 0], [120.21942569999999, -5.540784599999995, 0], [120.21961180000005, -5.5406990999999834, 0], [120.21975180000004, -5.540628099999992, 0], [120.21992020000005, -5.540586500000018, 0], [120.22005769999998, -5.540550999999994, 0], [120.22025529999996, -5.540459499999997, 0], [120.22041690000003, -5.540404799999976, 0], [120.22061010000004, -5.540344500000003, 0], [120.22074050000003, -5.540292799999975, 0], [120.22093099999995, -5.540219499999978, 0], [120.22109309999996, -5.540147300000001, 0], [120.2212429, -5.540102100000013, 0], [120.22138940000002, -5.540061600000001, 0], [120.22153579999997, -5.540014900000017, 0], [120.22169069999995, -5.539977399999998, 0], [120.22185839999997, -5.539925600000004, 0], [120.22206489999996, -5.539919800000007, 0], [120.22223729999996, -5.539925900000014, 0], [120.22240729999999, -5.539853400000027, 0], [120.22251489999996, -5.539828600000021, 0], [120.22273059999998, -5.5397841999999855, 0], [120.22294899999997, -5.539743600000008, 0], [120.223322908, -5.53962405599998, 0], [120.2236815, -5.539590799999985, 0], [120.22373870000001, -5.539579500000002, 0], [120.2237695, -5.53957939999998, 0], [120.22393020000004, -5.539551800000027, 0], [120.22405509999999, -5.539525500000025, 0], [120.22421859999997, -5.539514600000018, 0], [120.22436619999996, -5.539499400000011, 0], [120.224516, -5.53948250000002, 0], [120.22471129999997, -5.539466199999993, 0], [120.22490289999996, -5.539456099999995, 0], [120.22507489999998, -5.539443800000015, 0], [120.22526970000001, -5.539416200000005, 0], [120.22546409999995, -5.53942760000001, 0], [120.22556329999998, -5.539441899999986, 0], [120.22558550300005, -5.539466475999973, 0], [120.22576212499996, -5.5394669080000085, 0], [120.22600269099996, -5.5394465649999916, 0], [120.22610959999997, -5.539402699999982, 0], [120.22631449999994, -5.539377600000023, 0], [120.2265347, -5.5393444000000045, 0], [120.22698270000001, -5.539216300000021, 0], [120.22708469999998, -5.539199999999994, 0], [120.22737830000005, -5.539091400000018, 0], [120.22757390000004, -5.539044600000011, 0], [120.22761885900002, -5.539028614000017, 0], [120.22766979999994, -5.539010500000018, 0], [120.22784349999995, -5.538967800000023, 0], [120.22786919999999, -5.538969300000019, 0], [120.22789950000004, -5.538981100000001, 0], [120.22790590900001, -5.538981820000004, 0], [120.22806949999995, -5.539000199999975, 0], [120.2282027, -5.539007700000013, 0], [120.22842370000001, -5.538986500000021, 0], [120.22860690000005, -5.538986099999988, 0], [120.22876859999997, -5.53901239999999, 0], [120.22895289999997, -5.538995999999997, 0], [120.22914909999997, -5.538960299999985, 0], [120.22938550000003, -5.5390325999999845, 0], [120.22973860000002, -5.53896739999999, 0], [120.22988239999995, -5.538888199999974, 0], [120.23005590000002, -5.538786700000003, 0], [120.23022739999999, -5.538697500000012, 0], [120.23039240000003, -5.538630699999999, 0], [120.23054749999994, -5.53857499999998, 0], [120.23074640000004, -5.538509499999975, 0], [120.23100039999997, -5.538420499999972, 0], [120.23100913099995, -5.538405436000005, 0], [120.23110640000004, -5.538237600000002, 0], [120.23111340000003, -5.5381936, 0], [120.23125073699998, -5.538125146000027, 0], [120.23138398699996, -5.538258396999993, 0], [120.23153627199997, -5.538296467000009, 0], [120.23178373600001, -5.538353574999974, 0], [120.23191562700003, -5.538419519999991, 0], [120.23201216400003, -5.538467788999981, 0], [120.23225962799995, -5.538486824000017, 0], [120.23239764100003, -5.538504075999981, 0], [120.23256419899997, -5.538524896000013, 0], [120.23264917999995, -5.538524896000013, 0], [120.23275455600003, -5.538524896000013, 0], [120.23298298400005, -5.538524896000013, 0], [120.23325917700004, -5.5385315809999724, 0], [120.23348531299996, -5.538534138999978, 0], [120.23354076199996, -5.5385586909999915, 0], [120.23366680000004, -5.538614499999994, 0], [120.23386830000004, -5.538659399999972, 0], [120.23409660000004, -5.538639999999987, 0], [120.2342142, -5.538632000000007, 0], [120.23429529999999, -5.538640499999985, 0], [120.23455939999997, -5.538636600000018, 0], [120.23479640000005, -5.538635499999998, 0], [120.23507400000005, -5.538635899999974, 0], [120.23515029299995, -5.538635833000001, 0], [120.23530100000005, -5.538635699999986, 0], [120.23536252099996, -5.53864570799999, 0], [120.2353637, -5.538645900000006, 0], [120.23540390000005, -5.53864729999998, 0], [120.23546444099998, -5.5386485060000155, 0], [120.23559469999998, -5.538651099999981, 0], [120.23562245999995, -5.538652448999983, 0], [120.23580670000001, -5.538661400000024, 0], [120.23605010000006, -5.538689299999987, 0], [120.23623959999998, -5.538688200000024, 0], [120.23646080000003, -5.538569800000005, 0], [120.23708380000005, -5.5383645, 0], [120.23729990000004, -5.538234199999977, 0], [120.23750619999998, -5.538132700000006, 0], [120.23766230000001, -5.538042500000017, 0], [120.23787230000005, -5.537916199999984, 0], [120.23797168099998, -5.537858742000026, 0], [120.23805909999999, -5.537808199999972, 0], [120.23824190000005, -5.537708699999996, 0], [120.23826980000001, -5.537690699999985, 0], [120.23854630000005, -5.537599600000021, 0], [120.2386861, -5.537569700000006, 0], [120.2389134, -5.537478700000008, 0], [120.23898999999994, -5.537446199999977, 0], [120.23906409999995, -5.537456099999986, 0], [120.23910750000005, -5.537429299999985, 0], [120.23918060000005, -5.537386700000013, 0], [120.2393849, -5.537275000000022, 0], [120.23954509999999, -5.5371898000000215, 0], [120.2397082, -5.537074299999972, 0], [120.23982980000005, -5.536984700000005, 0], [120.23992559999999, -5.5369119999999725, 0], [120.23995160000004, -5.536899399999982, 0], [120.23996709999994, -5.5368799999999965, 0], [120.23998710000001, -5.536858600000016, 0], [120.24004609999997, -5.536788399999978, 0], [120.24014838400001, -5.536776255999996, 0], [120.24017389799997, -5.536752179000018, 0], [120.24021821500003, -5.536676148000026, 0], [120.24026246100004, -5.536615360999974, 0], [120.24058824300005, -5.536372904000018, 0], [120.24073323899995, -5.536131317000013, 0], [120.24119723399997, -5.534888049000017, 0], [120.24169097200001, -5.534007647999999, 0], [120.24185158499995, -5.533502012999975, 0], [120.24192297000002, -5.533234323999977, 0], [120.24186943200004, -5.53296663399999, 0], [120.24178020199997, -5.532788174000018, 0], [120.24153630700005, -5.532633509999982, 0], [120.24135189900005, -5.532556177000004, 0], [120.24106041499999, -5.532556177000004, 0], [120.240893852, -5.53258592100002, 0], [120.24051313899997, -5.532740584999999, 0], [120.23987068500003, -5.533097504000011, 0], [120.23954945800006, -5.533270016000017, 0], [120.23926987000004, -5.5333949370000255, 0], [120.23899028400001, -5.533400885999981, 0], [120.23870474900002, -5.533329502000015, 0], [120.23845490500003, -5.533162940000011, 0], [120.23828239399995, -5.532817917999978, 0], [120.23818721600003, -5.532532382999989, 0], [120.23813367800005, -5.532276591000027, 0], [120.23815866200005, -5.531991054999992, 0], [120.23822290700002, -5.531705520000003, 0], [120.23836805500002, -5.531546096, 0], [120.23854175600002, -5.531443779000028, 0], [120.23903140899995, -5.5312292309999975, 0], [120.23951324999996, -5.531041847999973, 0], [120.23979283699998, -5.530946669999992, 0], [120.239941553, -5.530845542999998, 0], [120.24010514099996, -5.530738467999981, 0], [120.24022411399994, -5.530571904999988, 0], [120.24025385699997, -5.530438060999984, 0], [120.24019139699999, -5.5302090380000095, 0], [120.240108115, -5.530087089000006, 0], [120.23993560400004, -5.530006782999976, 0], [120.23968873499996, -5.529959194000014, 0], [120.23942996799997, -5.5299532450000015, 0], [120.23905222899998, -5.52999785999998, 0], [120.23872505400004, -5.530039500999976, 0], [120.238240238, -5.530019423999988, 0], [120.23731819700004, -5.529727939999987, 0], [120.23652702599998, -5.529543531999991, 0], [120.23578344500004, -5.529418609999993, 0], [120.23515883599998, -5.529329379999979, 0], [120.23436171699996, -5.529067639999994, 0], [120.23394531099996, -5.5288534879999816, 0], [120.23364787800006, -5.528544157999988, 0], [120.23337423999999, -5.528294313999993, 0], [120.23288645100001, -5.528020676999972, 0], [120.23200605099998, -5.527500764000024, 0], [120.23173122200001, -5.527304458000003, 0], [120.23161343899994, -5.527136707000011, 0], [120.23160273200006, -5.526901140000007, 0], [120.23165627000003, -5.526729819000025, 0], [120.23178832999997, -5.526554927999996, 0], [120.23202032699999, -5.526405022000006, 0], [120.23244149100003, -5.526165886999991, 0], [120.23287693299994, -5.52586607500001, 0], [120.23311963799995, -5.525659061999988, 0], [120.23332308199997, -5.52537352600001, 0], [120.23346941900002, -5.525109406000013, 0], [120.23365501700005, -5.524309908000021, 0], [120.23379778399999, -5.523292688000026, 0], [120.23381206099998, -5.523074967000014, 0], [120.23381562999998, -5.522921492000023, 0], [120.233765662, -5.522800139000026, 0]]]}}, {"type": "Feature", "properties": {"wadmkc": "Ujung Bulu", "wadmkd": "Kasimpureng", "tipadm": 2, "namobj": null, "kdepum": null}, "geometry": {"type": "Polygon", "coordinates": [[[120.19006543600005, -5.558464134000019, 0], [120.189488417, -5.55862474700001, 0], [120.188471198, -5.558922180000025, 0], [120.18721008299997, -5.55927909899998, 0], [120.18629993900004, -5.559511095999994, 0], [120.18609768500005, -5.559528942999975, 0], [120.18564796700002, -5.559188679999977, 0], [120.18460063999999, -5.558437879999985, 0], [120.18418305399996, -5.559133405000011, 0], [120.18418033900002, -5.559137926999995, 0], [120.18429172499998, -5.559309722000023, 0], [120.18435107599998, -5.559457061999979, 0], [120.18436115600002, -5.559482084000024, 0], [120.18445114899998, -5.559752598999978, 0], [120.18446899499997, -5.560038134000024, 0], [120.18443925199995, -5.560299874999998, 0], [120.18443925199995, -5.5605735130000085, 0], [120.18445114899998, -5.560781716000008, 0], [120.18447494400004, -5.560924483999997, 0], [120.18451063600003, -5.561239763000003, 0], [120.18457607100004, -5.561471760000018, 0], [120.18473668499996, -5.561739449000015, 0], [120.18519473100002, -5.562203443999977, 0], [120.18585503099996, -5.562744770999984, 0], [120.18652127999997, -5.563303944999973, 0], [120.18680681599994, -5.563598997999975, 0], [120.187087593, -5.563798872000007, 0], [120.18733505600005, -5.563908328000025, 0], [120.187525413, -5.56398446999998, 0], [120.18782046599995, -5.564055854999992, 0], [120.18807744799994, -5.564103443000022, 0], [120.18834870600006, -5.564103443000022, 0], [120.188705626, -5.564103443000022, 0], [120.188872188, -5.564089165999974, 0], [120.18914820600003, -5.564151032999973, 0], [120.18933380299995, -5.564222416000007, 0], [120.18968120500006, -5.564422291000028, 0], [120.18988345900004, -5.564618834999976, 0], [120.19026179299999, -5.564768741000023, 0], [120.19064726600004, -5.564868677999982, 0], [120.19109698399996, -5.564947200999995, 0], [120.19141476799996, -5.565031060000024, 0], [120.19152875999998, -5.564982799999996, 0], [120.19166364399996, -5.564882185999977, 0], [120.19180641100002, -5.564767970999981, 0], [120.19193490199996, -5.564682310000023, 0], [120.19212267399996, -5.564560803000006, 0], [120.19225949199995, -5.564438854999992, 0], [120.192375491, -5.56435557399999, 0], [120.19239475300003, -5.564340539999989, 0], [120.19133329299996, -5.563677333999976, 0], [120.19116672999996, -5.563391798999987, 0], [120.19102872099995, -5.562987291000013, 0], [120.19097637300001, -5.562639889000025, 0], [120.19089071300004, -5.561907014999974, 0], [120.190914507, -5.561059926999974, 0], [120.190914507, -5.560836257999995, 0], [120.19086216000005, -5.5605221690000235, 0], [120.19081457000004, -5.559884473000011, 0], [120.19075768200003, -5.5591565550000155, 0], [120.19076541499999, -5.558861502000013, 0], [120.19077433799998, -5.558772271999999, 0], [120.19079515800001, -5.558721708000007, 0], [120.19082686399997, -5.558660438999993, 0], [120.19006543600005, -5.558464134000019, 0]]]}}, {"type": "Feature", "properties": {"wadmkc": "Ujung Bulu", "wadmkd": "Bintarore", "tipadm": 2, "namobj": null, "kdepum": null}, "geometry": {"type": "Polygon", "coordinates": [[[120.18418033900002, -5.559137926999995, 0], [120.18417907800006, -5.559135982999976, 0], [120.18416675399999, -5.5591169740000055, 0], [120.18398602499997, -5.558906295999975, 0], [120.18362300499996, -5.558538101000011, 0], [120.18267536099995, -5.557726565999985, 0], [120.18218995100005, -5.557305401999997, 0], [120.18184730899998, -5.557081733000018, 0], [120.18168074699997, -5.557022245999974, 0], [120.18153797900004, -5.556980606000025, 0], [120.18131787899995, -5.556968708999989, 0], [120.18113941900003, -5.556968708999989, 0], [120.18088957600003, -5.557010348999995, 0], [120.18025307000005, -5.557450549000009, 0], [120.179693896, -5.557801519000009, 0], [120.17953328299996, -5.5578788519999875, 0], [120.17938456599995, -5.5578312630000255, 0], [120.17925369600005, -5.557724187000019, 0], [120.17914661999998, -5.557599265000022, 0], [120.17889677699998, -5.5570043999999825, 0], [120.17870642000003, -5.556522558999973, 0], [120.17854983400002, -5.556192517999989, 0], [120.17848489000005, -5.556017399999973, 0], [120.17851249399996, -5.5558634490000145, 0], [120.1784887, -5.555673092000006, 0], [120.17846014600002, -5.555568396000012, 0], [120.17830310199997, -5.555339967000009, 0], [120.177641612, -5.554787933, 0], [120.176811338, -5.554138299999977, 0], [120.17629737499999, -5.553895594999972, 0], [120.176040393, -5.5537314119999905, 0], [120.17588334799996, -5.553602920999992, 0], [120.17581910299998, -5.553474430999984, 0], [120.175769134, -5.553303109000012, 0], [120.17574771900001, -5.553153203000022, 0], [120.17566205799994, -5.552917636000018, 0], [120.175554982, -5.55264637800002, 0], [120.17550981600004, -5.552486636000026, 0], [120.17514155599997, -5.55257720100002, 0], [120.17471248000004, -5.552873191999993, 0], [120.17438843499997, -5.553554254000005, 0], [120.17418545299995, -5.554075279000017, 0], [120.17426086399996, -5.5550794819999965, 0], [120.17457552799999, -5.5563659040000175, 0], [120.17517318299997, -5.557171837999988, 0], [120.17533013299999, -5.557895355000028, 0], [120.175482869, -5.559502232999989, 0], [120.17489636300002, -5.561982296999986, 0], [120.17489407699998, -5.562105965000001, 0], [120.174825425, -5.562319102999993, 0], [120.17472468899996, -5.562523610000028, 0], [120.17462565599999, -5.562724746000015, 0], [120.17457087800005, -5.562865095999996, 0], [120.174542771, -5.563085204000004, 0], [120.17454205900003, -5.56323428799999, 0], [120.17454112099995, -5.563430808000021, 0], [120.17449671099996, -5.564130365999972, 0], [120.174476787, -5.564305628, 0], [120.1745019, -5.564309999999978, 0], [120.17463729999997, -5.564348100000018, 0], [120.17483370000002, -5.5643387000000075, 0], [120.17494590000001, -5.564453800000024, 0], [120.17536012300002, -5.5645180669999945, 0], [120.17557280000005, -5.564526399999977, 0], [120.17579179999996, -5.5645308, 0], [120.1760385, -5.564561400000002, 0], [120.1762582, -5.564605599999993, 0], [120.17649800000004, -5.564679099999978, 0], [120.17663470000002, -5.564725199999998, 0], [120.17685019999999, -5.564782700000023, 0], [120.1772287, -5.5648380999999745, 0], [120.17746980000004, -5.5648822, 0], [120.17752470000005, -5.564885000000004, 0], [120.17774559999998, -5.56492350000002, 0], [120.17778559999999, -5.564952000000005, 0], [120.17783240000006, -5.565000199999986, 0], [120.17800799999998, -5.565038099999981, 0], [120.17815080000003, -5.565066999999999, 0], [120.17827190000003, -5.565093999999988, 0], [120.17844400000001, -5.565137499999992, 0], [120.17864629999997, -5.565195899999992, 0], [120.17887919999998, -5.565303799999981, 0], [120.17908239999997, -5.56543640000001, 0], [120.17925590000004, -5.565590499999985, 0], [120.17945950000001, -5.565713500000015, 0], [120.17953239999997, -5.565742899999975, 0], [120.17989350000005, -5.56581349999999, 0], [120.18018110000003, -5.565849200000002, 0], [120.18068619999997, -5.566053000000011, 0], [120.18091879999997, -5.5660298999999895, 0], [120.18094327699998, -5.5660283930000105, 0], [120.18112829999995, -5.566016999999988, 0], [120.18128109999998, -5.566019299999994, 0], [120.18149270000004, -5.566061100000013, 0], [120.18169209999996, -5.566103899999973, 0], [120.18186920000005, -5.56614380000002, 0], [120.18209609999997, -5.566203200000018, 0], [120.182319, -5.566250500000024, 0], [120.18251850000001, -5.566256199999998, 0], [120.18262059999995, -5.56626799999998, 0], [120.18281920000004, -5.566282899999976, 0], [120.18301870000005, -5.566331300000002, 0], [120.18328399999996, -5.56635110000002, 0], [120.18352560000005, -5.566370300000017, 0], [120.18371520000005, -5.566381999999976, 0], [120.18392949999998, -5.56642149999999, 0], [120.18418680000002, -5.566473400000007, 0], [120.18442560000005, -5.566510100000016, 0], [120.18462120000004, -5.56654450000002, 0], [120.18485720000001, -5.566583700000024, 0], [120.18511869999998, -5.566602499999988, 0], [120.18535440000005, -5.566610500000024, 0], [120.1855746, -5.566625699999975, 0], [120.18581370000004, -5.566633500000023, 0], [120.18607569999995, -5.566609200000016, 0], [120.18634169999996, -5.56657389999998, 0], [120.18686530000002, -5.566593800000021, 0], [120.18700160000003, -5.566585299999986, 0], [120.1870758, -5.566586700000016, 0], [120.18721960000005, -5.566593099999977, 0], [120.18749460000004, -5.566556800000001, 0], [120.18765440000004, -5.566539900000009, 0], [120.18786260000002, -5.566525800000022, 0], [120.18802600000004, -5.566522899999995, 0], [120.18820400000004, -5.566499099999987, 0], [120.18838010000002, -5.566474599999992, 0], [120.18861649999997, -5.566465800000003, 0], [120.18879089999996, -5.566460099999972, 0], [120.18904320000001, -5.566392500000006, 0], [120.18922899999995, -5.566353600000014, 0], [120.18940380000004, -5.566322700000001, 0], [120.18949950000001, -5.566289999999981, 0], [120.1896438, -5.566263300000003, 0], [120.18973900699996, -5.566174596999986, 0], [120.189924604, -5.566038967999987, 0], [120.19009949500003, -5.565985430000012, 0], [120.19035647600003, -5.56592475399998, 0], [120.19059918200003, -5.565864078000004, 0], [120.19088471700002, -5.565828386000021, 0], [120.19105960700006, -5.56581767900002, 0], [120.19123092799998, -5.565835524000022, 0], [120.19134157300005, -5.565874785000005, 0], [120.19140581900001, -5.565942600000028, 0], [120.19142932499994, -5.565979292000009, 0], [120.19152587300005, -5.5659886349999965, 0], [120.19161510200001, -5.565956512000014, 0], [120.19164722599999, -5.565870851999989, 0], [120.191636518, -5.565792328999976, 0], [120.19161510200001, -5.565728084, 0], [120.19158110800004, -5.565671178000002, 0], [120.191522867, -5.565629229000024, 0], [120.19095983099999, -5.565408009000009, 0], [120.19092125199995, -5.565039230000025, 0], [120.19113257900005, -5.56506489100002, 0], [120.19132782899999, -5.565067865999993, 0], [120.19141476799996, -5.565031060000024, 0], [120.19109698399996, -5.564947200999995, 0], [120.19064726600004, -5.564868677999982, 0], [120.19026179299999, -5.564768741000023, 0], [120.18988345900004, -5.564618834999976, 0], [120.18968120500006, -5.564422291000028, 0], [120.18933380299995, -5.564222416000007, 0], [120.18914820600003, -5.564151032999973, 0], [120.188872188, -5.564089165999974, 0], [120.188705626, -5.564103443000022, 0], [120.18834870600006, -5.564103443000022, 0], [120.18807744799994, -5.564103443000022, 0], [120.18782046599995, -5.564055854999992, 0], [120.187525413, -5.56398446999998, 0], [120.18733505600005, -5.563908328000025, 0], [120.187087593, -5.563798872000007, 0], [120.18680681599994, -5.563598997999975, 0], [120.18652127999997, -5.563303944999973, 0], [120.18585503099996, -5.562744770999984, 0], [120.18519473100002, -5.562203443999977, 0], [120.18473668499996, -5.561739449000015, 0], [120.18457607100004, -5.561471760000018, 0], [120.18451063600003, -5.561239763000003, 0], [120.18447494400004, -5.560924483999997, 0], [120.18445114899998, -5.560781716000008, 0], [120.18443925199995, -5.5605735130000085, 0], [120.18443925199995, -5.560299874999998, 0], [120.18446899499997, -5.560038134000024, 0], [120.18445114899998, -5.559752598999978, 0], [120.18436115600002, -5.559482084000024, 0], [120.18435107599998, -5.559457061999979, 0], [120.18429172499998, -5.559309722000023, 0], [120.18418033900002, -5.559137926999995, 0]]]}}, {"type": "Feature", "properties": {"wadmkc": "Ujung Bulu", "wadmkd": "Ela Ela", "tipadm": 2, "namobj": null, "kdepum": null}, "geometry": {"type": "Polygon", "coordinates": [[[120.21600163899996, -5.543431307999981, 0], [120.21549191300005, -5.543081233999999, 0], [120.21530591600003, -5.543333593999989, 0], [120.21456582300004, -5.542757209000001, 0], [120.21427764299995, -5.542934022999987, 0], [120.21391044699999, -5.542573633000018, 0], [120.21378050199996, -5.542443961999993, 0], [120.21409578099997, -5.542063249000023, 0], [120.21439083400003, -5.541713468000012, 0], [120.21464067800002, -5.541362498000012, 0], [120.21495595700003, -5.541005579, 0], [120.21517956599996, -5.540831878000006, 0], [120.21502966100002, -5.540646279999976, 0], [120.21501538400003, -5.5404678200000035, 0], [120.21505107500002, -5.540296499000021, 0], [120.21501538400003, -5.540025239999977, 0], [120.21487261599998, -5.53979681200002, 0], [120.214663223, -5.539493430999983, 0], [120.21453235299998, -5.539213844000017, 0], [120.21434794499999, -5.53883313, 0], [120.21377417999997, -5.538402205000011, 0], [120.21335895699997, -5.538029547000008, 0], [120.21263990800003, -5.537195295000004, 0], [120.21259290399996, -5.537357247999978, 0], [120.21254519499996, -5.537434958999995, 0], [120.21252978099994, -5.537475547999975, 0], [120.21245154899998, -5.537571754999988, 0], [120.21235482600002, -5.537645844999986, 0], [120.21225983, -5.537711468999987, 0], [120.21213781100005, -5.537770195999997, 0], [120.21203775100003, -5.537832407999986, 0], [120.21193769399997, -5.537896316999991, 0], [120.21181042299997, -5.5379922939999915, 0], [120.21173572400005, -5.538056322999978, 0], [120.21158136899999, -5.538160638000022, 0], [120.21138300200005, -5.538273211999979, 0], [120.21125573999996, -5.5383691889999795, 0], [120.21115902400004, -5.538439890999996, 0], [120.21107749700002, -5.538517440000021, 0], [120.210994261, -5.538600060000022, 0], [120.21091943399995, -5.5386911969999915, 0], [120.21087174900003, -5.538763829000004, 0], [120.21082746100001, -5.538833077999982, 0], [120.21078652300002, -5.538909129999979, 0], [120.21072856399996, -5.5390088130000095, 0], [120.21068933599997, -5.539079785000013, 0], [120.21059226299997, -5.539228418999983, 0], [120.210510624, -5.539329688000009, 0], [120.21043754100003, -5.539408977999983, 0], [120.21037137799999, -5.5394561030000204, 0], [120.21029855699999, -5.539479479000022, 0], [120.21021565399997, -5.539490944000022, 0], [120.210142894, -5.539500766000003, 0], [120.21004989400001, -5.53950202599998, 0], [120.20998394000003, -5.539503405999994, 0], [120.20987065700001, -5.539502872000014, 0], [120.20974721200002, -5.539503989000025, 0], [120.20965421999995, -5.539503550000006, 0], [120.20955783700003, -5.539503095999976, 0], [120.20948507100002, -5.539516306999985, 0], [120.20943598500003, -5.539526240999976, 0], [120.20939345600004, -5.539581945000009, 0], [120.20937611, -5.539675050000028, 0], [120.20937568099998, -5.539766536000002, 0], [120.20937871900003, -5.5398393980000264, 0], [120.20940026599999, -5.5399309879999805, 0], [120.20942360499998, -5.540002254000001, 0], [120.209460078, -5.540156605999982, 0], [120.209475086, -5.540202416, 0], [120.20952649499998, -5.540416129999983, 0], [120.20953952000002, -5.540522931999988, 0], [120.20953562900002, -5.540631345000008, 0], [120.209521666, -5.540724458, 0], [120.20946885599994, -5.540808919000028, 0], [120.20943310400003, -5.540859576999992, 0], [120.20934647800004, -5.540943880999976, 0], [120.20927340900005, -5.541019780999989, 0], [120.20921893499997, -5.541097458000024, 0], [120.20918132300005, -5.541185380000002, 0], [120.20914702699997, -5.541286871000011, 0], [120.20912800400004, -5.541378269999996, 0], [120.20911578799996, -5.541457836999996, 0], [120.20909673200003, -5.5415560110000115, 0], [120.209080976, -5.541669453999987, 0], [120.20907717299997, -5.541759227, 0], [120.20908509900005, -5.541872780999995, 0], [120.20909475799999, -5.5419761709999875, 0], [120.20916816800002, -5.542186601000026, 0], [120.20917271200005, -5.542298440000025, 0], [120.20917224899995, -5.542396703999998, 0], [120.20916330700004, -5.542501703000028, 0], [120.20909358699998, -5.542584395999995, 0], [120.20901743800005, -5.542597591000003, 0], [120.20894473500005, -5.542595548000008, 0], [120.20884191699997, -5.542527294000024, 0], [120.20877265000001, -5.542513412999995, 0], [120.20868984200001, -5.5425045569999725, 0], [120.20859177199998, -5.54250409399998, 0], [120.20850045899999, -5.542505353000024, 0], [120.20844117800004, -5.542525404000003, 0], [120.20836324799996, -5.542557230999989, 0], [120.208317352, -5.542609529999993, 0], [120.20828506999999, -5.5426415719999795, 0], [120.20822904700003, -5.542690436999976, 0], [120.20819336600005, -5.542725851, 0], [120.20814587100006, -5.542757811999991, 0], [120.20807821200003, -5.542762579999987, 0], [120.20800043400004, -5.542762213999993, 0], [120.20792773999995, -5.542760171999987, 0], [120.20783476099996, -5.54275465500001, 0], [120.20770632000006, -5.5427404949999755, 0], [120.20759964900003, -5.542772176000028, 0], [120.20746421499996, -5.54280712000002, 0], [120.20739801900004, -5.542859324999995, 0], [120.20734027599997, -5.542913267000017, 0], [120.20728265100001, -5.542941801999973, 0], [120.20723023200003, -5.542943243000025, 0], [120.20710351599996, -5.542920625000022, 0], [120.20698230799997, -5.543144962999975, 0], [120.20642429899999, -5.543843573000004, 0], [120.20589877700002, -5.54436545599998, 0], [120.20577248999996, -5.544490868000025, 0], [120.20440411499999, -5.545969329999991, 0], [120.20380930900001, -5.5464213820000055, 0], [120.20309554200003, -5.546825850000005, 0], [120.20202489200005, -5.547301693999998, 0], [120.20131112399997, -5.54756340900002, 0], [120.20026611900005, -5.547919143000001, 0], [120.20065278200002, -5.5485163870000065, 0], [120.20079515299994, -5.548697226000002, 0], [120.20103904799998, -5.549107682999988, 0], [120.20118181500004, -5.54937656300001, 0], [120.20135313599997, -5.549833418999981, 0], [120.20140310500005, -5.550126093000017, 0], [120.20156014899999, -5.550939868, 0], [120.20156014899999, -5.551289649000012, 0], [120.20152362099998, -5.551728098000012, 0], [120.20129959899998, -5.552206216999991, 0], [120.20116753900004, -5.552463199999977, 0], [120.20266340700005, -5.554626352000014, 0], [120.20293509999999, -5.554964900000016, 0], [120.2031098, -5.55479170000001, 0], [120.20328600000005, -5.554717600000004, 0], [120.20343460000004, -5.5546767999999815, 0], [120.20360619999997, -5.554623900000024, 0], [120.2037358, -5.554424200000028, 0], [120.20374119999997, -5.5543768, 0], [120.20374200000003, -5.554344599999979, 0], [120.20380899999998, -5.554180799999983, 0], [120.20442390000005, -5.5540401999999744, 0], [120.20462910000003, -5.553907700000025, 0], [120.20487979999996, -5.5537360999999805, 0], [120.2051103, -5.553600399999993, 0], [120.20530940000003, -5.553460200000018, 0], [120.2055345, -5.5533497000000125, 0], [120.20569539999997, -5.553157800000008, 0], [120.20604049999997, -5.553113999999994, 0], [120.20622960000003, -5.553028799999993, 0], [120.20623639999997, -5.55302549999999, 0], [120.2063197, -5.553012899999999, 0], [120.20652319999999, -5.552927399999987, 0], [120.20671089999996, -5.552805499999977, 0], [120.20690830000001, -5.552691200000027, 0], [120.20710550000001, -5.552556700000025, 0], [120.20735109999998, -5.552334799999983, 0], [120.20754903199997, -5.552195227000027, 0], [120.20757800000001, -5.552174799999989, 0], [120.20775939999999, -5.552017200000023, 0], [120.20796440000004, -5.551917100000026, 0], [120.20840010999996, -5.551684027000022, 0], [120.20849550000003, -5.551632999999981, 0], [120.20860355100001, -5.551555629999996, 0], [120.20862509999995, -5.551540199999977, 0], [120.20872369999995, -5.551462000000015, 0], [120.20883479999998, -5.551384199999973, 0], [120.20893490000003, -5.551298099999997, 0], [120.20905370000003, -5.551207099999999, 0], [120.20907629999999, -5.551191099999983, 0], [120.20912190000001, -5.551146500000016, 0], [120.20921810000004, -5.551028499999973, 0], [120.20927129999995, -5.550983400000007, 0], [120.2093036, -5.550958600000001, 0], [120.2094313, -5.550859600000024, 0], [120.20955319999996, -5.550757999999973, 0], [120.20956950000004, -5.550667900000008, 0], [120.20996200000002, -5.550649200000009, 0], [120.21014839999998, -5.55055040000002, 0], [120.21028920000003, -5.550482600000009, 0], [120.21043599999996, -5.550449200000003, 0], [120.21047650000003, -5.550440600000002, 0], [120.21074929999997, -5.550238799999988, 0], [120.21090619999995, -5.550078999999982, 0], [120.2110907, -5.549943699999972, 0], [120.21127200000001, -5.549799099999973, 0], [120.21129659999997, -5.549783400000024, 0], [120.21130159999996, -5.549777399999982, 0], [120.21131979999996, -5.549764900000014, 0], [120.21149349999996, -5.549711800000011, 0], [120.21165169999995, -5.549652499999979, 0], [120.2117174, -5.549640699999998, 0], [120.21186660000001, -5.549554699999987, 0], [120.21202779999999, -5.5494992999999795, 0], [120.21206440000003, -5.5494833999999855, 0], [120.21208530000001, -5.549478299999976, 0], [120.21223239999995, -5.549458800000025, 0], [120.21240139999998, -5.549480000000017, 0], [120.2125744, -5.549504000000013, 0], [120.21260270000005, -5.549502899999993, 0], [120.21262249999995, -5.549504399999989, 0], [120.21265910900001, -5.549489739000023, 0], [120.2127064, -5.549470799999995, 0], [120.21275641299997, -5.549438447, 0], [120.21281090000002, -5.549403199999972, 0], [120.21292759999994, -5.549311299999999, 0], [120.21291240000005, -5.54922449999998, 0], [120.21293119999996, -5.548998499999982, 0], [120.21305600000005, -5.548762500000009, 0], [120.21328889999995, -5.5484605999999985, 0], [120.21332399999994, -5.548327799999981, 0], [120.21342589999995, -5.548151800000028, 0], [120.21352460000003, -5.547990500000026, 0], [120.21364789999996, -5.547728800000016, 0], [120.21375590000002, -5.547522200000003, 0], [120.21383790000004, -5.547289400000011, 0], [120.21392909999997, -5.547271799999976, 0], [120.21398139999997, -5.547237399999972, 0], [120.21407650000003, -5.547097099999974, 0], [120.21411980000005, -5.5468662999999765, 0], [120.21418970000002, -5.54668700000002, 0], [120.21423279999999, -5.546547599999997, 0], [120.2143231, -5.546398199999999, 0], [120.21438339999997, -5.546310000000005, 0], [120.21440329999996, -5.546283899999992, 0], [120.21442309999998, -5.546260599999982, 0], [120.2144624, -5.546198899999979, 0], [120.21449666800004, -5.546161526999981, 0], [120.21458613300001, -5.54619298099999, 0], [120.21463359699999, -5.546209669000007, 0], [120.214669308, -5.5461349999999925, 0], [120.21463029400002, -5.546111043999986, 0], [120.21448425899996, -5.546021372999974, 0], [120.21450443599997, -5.54588374399998, 0], [120.21447588299998, -5.5456267619999835, 0], [120.21456154400005, -5.545250807000002, 0], [120.21477271599997, -5.544958736000012, 0], [120.21487669999999, -5.544827300000009, 0], [120.21494829999995, -5.544744499999979, 0], [120.21496279999997, -5.544718100000011, 0], [120.21506969999996, -5.544580499999995, 0], [120.21516670000005, -5.544465300000013, 0], [120.21525959999997, -5.544340799999986, 0], [120.21533320000003, -5.544237800000019, 0], [120.21545549999996, -5.544097099999988, 0], [120.21555739999997, -5.543954499999984, 0], [120.21567289999996, -5.543797999999981, 0], [120.21585970000001, -5.5436513999999875, 0], [120.21594219999997, -5.543461900000011, 0], [120.21600163899996, -5.543431307999981, 0]]]}}, {"type": "Feature", "properties": {"wadmkc": "Ujung Bulu", "wadmkd": "Loka", "tipadm": 2, "namobj": null, "kdepum": null}, "geometry": {"type": "Polygon", "coordinates": [[[120.196232528, -5.551437577999991, 0], [120.19533290499999, -5.550713533000021, 0], [120.19404881699995, -5.549839930000019, 0], [120.19314462199998, -5.549268859999984, 0], [120.19037596099997, -5.547260246999997, 0], [120.18851225900005, -5.546617184000013, 0], [120.18792808700005, -5.547439971000017, 0], [120.18531926399999, -5.548976128999982, 0], [120.184604046, -5.548493737000001, 0], [120.18445712699997, -5.547954178999987, 0], [120.18451876400002, -5.547565297000006, 0], [120.18359555899997, -5.546812486000022, 0], [120.18296292699995, -5.547827311999981, 0], [120.18193837800004, -5.5495288070000015, 0], [120.18124770500003, -5.550350745999992, 0], [120.18129830999999, -5.550428226000008, 0], [120.181407766, -5.5505186460000004, 0], [120.18157432700002, -5.550556717000006, 0], [120.181679024, -5.550623341999994, 0], [120.18179799699999, -5.5508565289999865, 0], [120.18187889900003, -5.551004056000011, 0], [120.18189793399995, -5.551080199000012, 0], [120.18195979999996, -5.551156342000013, 0], [120.18205497899999, -5.551203929999986, 0], [120.18212636299995, -5.551237243000003, 0], [120.18215015700002, -5.5513229030000275, 0], [120.18215015700002, -5.55144663599998, 0], [120.18215015700002, -5.551551331999974, 0], [120.18218822899996, -5.551579885000024, 0], [120.18234527300001, -5.551632233000021, 0], [120.182435693, -5.551698858999998, 0], [120.18250231699994, -5.55177500100001, 0], [120.18262604999995, -5.551822589999972, 0], [120.18279261199996, -5.551917768999999, 0], [120.18287827300003, -5.551979635000009, 0], [120.18304483400004, -5.552022464999993, 0], [120.18325184699995, -5.5521438179999905, 0], [120.1833732, -5.552165232999982, 0], [120.18348027599995, -5.552165232999982, 0], [120.18370870399997, -5.552243755000006, 0], [120.18377295000005, -5.55232227800002, 0], [120.18384433300002, -5.5523722460000045, 0], [120.18403707000004, -5.552393660999996, 0], [120.18422266799996, -5.552379384999995, 0], [120.18442968099998, -5.552336554000021, 0], [120.18462241700001, -5.552307999999982, 0], [120.18478660000005, -5.552307999999982, 0], [120.18494364499998, -5.5523722460000045, 0], [120.185136381, -5.5524650450000195, 0], [120.18524345599997, -5.55262208900001, 0], [120.18532197900004, -5.552764857, 0], [120.18550757599996, -5.552993285000014, 0], [120.18562179100002, -5.552936177999982, 0], [120.18578597400005, -5.552871932000016, 0], [120.18600012499996, -5.552871932000016, 0], [120.18615003100001, -5.552936177999982, 0], [120.18622141499998, -5.55310036100002, 0], [120.18627852199995, -5.553150329000005, 0], [120.18675679399996, -5.55320743599998, 0], [120.18703519099995, -5.553257405000011, 0], [120.18727075699996, -5.553307373999985, 0], [120.18739924800002, -5.553385896000009, 0], [120.18716383000003, -5.553587876999984, 0], [120.186199751, -5.554509521, 0], [120.18596775399999, -5.554741519000004, 0], [120.18581903799998, -5.554943772999991, 0], [120.18562273299995, -5.555270948999976, 0], [120.185497811, -5.555681406000019, 0], [120.18530745400005, -5.55677000999998, 0], [120.18520632699995, -5.557388668999977, 0], [120.185099251, -5.557686101999991, 0], [120.18497433000005, -5.557947843000022, 0], [120.18478397199999, -5.558239325999978, 0], [120.18460063999999, -5.558437879999985, 0], [120.18564796700002, -5.559188679999977, 0], [120.18609768500005, -5.559528942999975, 0], [120.18629993900004, -5.559511095999994, 0], [120.18721008299997, -5.55927909899998, 0], [120.188471198, -5.558922180000025, 0], [120.189488417, -5.55862474700001, 0], [120.19006543600005, -5.558464134000019, 0], [120.19046672399998, -5.558322400000009, 0], [120.19077307999999, -5.5582361450000235, 0], [120.19106753899996, -5.558155838000005, 0], [120.19112393199998, -5.558100475999993, 0], [120.19123695600001, -5.557910118999985, 0], [120.19143921, -5.557654327000023, 0], [120.19170095100003, -5.5574342269999875, 0], [120.192438584, -5.556886951000024, 0], [120.19264916600002, -5.556745135000028, 0], [120.19289526199998, -5.556573496999988, 0], [120.19212780199996, -5.555738156000018, 0], [120.19359830799999, -5.55483158200002, 0], [120.19441208399996, -5.5542747879999865, 0], [120.194847525, -5.553967837000016, 0], [120.19501884700003, -5.553767962999984, 0], [120.195111645, -5.553610918000004, 0], [120.19581017400003, -5.551883727000018, 0], [120.196232528, -5.551437577999991, 0]]]}}, {"type": "Feature", "properties": {"wadmkc": "Ujung Bulu", "wadmkd": "Bentengnge", "tipadm": 2, "namobj": null, "kdepum": null}, "geometry": {"type": "Polygon", "coordinates": [[[120.19731560000002, -5.560409100000015, 0], [120.19696713600001, -5.5598971200000165, 0], [120.196469847, -5.559343222999985, 0], [120.195810736, -5.558829258999992, 0], [120.19494699200004, -5.558179666000001, 0], [120.19410466299996, -5.557594317999985, 0], [120.193436034, -5.557037524999998, 0], [120.19289526199998, -5.556573496999988, 0], [120.19264916600002, -5.556745135000028, 0], [120.192438584, -5.556886951000024, 0], [120.19170095100003, -5.5574342269999875, 0], [120.19143921, -5.557654327000023, 0], [120.19123695600001, -5.557910118999985, 0], [120.19112393199998, -5.558100475999993, 0], [120.19106753899996, -5.558155838000005, 0], [120.19077307999999, -5.5582361450000235, 0], [120.19046672399998, -5.558322400000009, 0], [120.19006543600005, -5.558464134000019, 0], [120.19082686399997, -5.558660438999993, 0], [120.19079515800001, -5.558721708000007, 0], [120.19077433799998, -5.558772271999999, 0], [120.19076541499999, -5.558861502000013, 0], [120.19075768200003, -5.5591565550000155, 0], [120.19081457000004, -5.559884473000011, 0], [120.19086216000005, -5.5605221690000235, 0], [120.190914507, -5.560836257999995, 0], [120.190914507, -5.561059926999974, 0], [120.19089071300004, -5.561907014999974, 0], [120.19097637300001, -5.562639889000025, 0], [120.19102872099995, -5.562987291000013, 0], [120.19116672999996, -5.563391798999987, 0], [120.19133329299996, -5.563677333999976, 0], [120.19239475300003, -5.564340539999989, 0], [120.19249743800003, -5.564260396000009, 0], [120.19288949999998, -5.563978799999973, 0], [120.19306325900004, -5.563926992000006, 0], [120.19310180000002, -5.563915500000007, 0], [120.19321803599996, -5.563794186999985, 0], [120.19323229999998, -5.5637793000000215, 0], [120.19344479999995, -5.563612799999987, 0], [120.19345202500006, -5.563607514000012, 0], [120.1936475, -5.563464500000009, 0], [120.19384879999996, -5.563329099999976, 0], [120.19402769999999, -5.5632077999999865, 0], [120.19425530000001, -5.563078099999984, 0], [120.19428019999998, -5.563066900000024, 0], [120.19437249999999, -5.562990800000023, 0], [120.19449750000001, -5.562930999999992, 0], [120.19468740399998, -5.562625525999977, 0], [120.19484980000004, -5.562364300000013, 0], [120.19496157599997, -5.562069662999988, 0], [120.19517572799998, -5.561898342000006, 0], [120.19533277200003, -5.561741297000026, 0], [120.19553264800004, -5.56159852899998, 0], [120.19570396799998, -5.561455760999991, 0], [120.19570941200004, -5.561451574999978, 0], [120.19583376599996, -5.561355916000025, 0], [120.19586145999995, -5.561334612999985, 0], [120.195889566, -5.561312993999991, 0], [120.19608944100003, -5.56115594900001, 0], [120.19630359300004, -5.561041735000003, 0], [120.19653202100005, -5.56097035099998, 0], [120.19713279999996, -5.560986800000023, 0], [120.19719610000004, -5.5609463999999775, 0], [120.19723539999995, -5.56083430000001, 0], [120.19725340000002, -5.560652199999993, 0], [120.19727069999999, -5.560488700000008, 0], [120.19731560000002, -5.560409100000015, 0]]]}}, {"type": "Feature", "properties": {"wadmkc": "Ujung Bulu", "wadmkd": "Caile", "tipadm": 2, "namobj": null, "kdepum": null}, "geometry": {"type": "Polygon", "coordinates": [[[120.20591056299997, -5.539524960999984, 0], [120.20583812200005, -5.539455051999994, 0], [120.20574879799995, -5.539393636999989, 0], [120.20566287199995, -5.539327153999977, 0], [120.20557019800003, -5.5392589470000075, 0], [120.20551973600004, -5.539202804000013, 0], [120.20547772299994, -5.539146691999974, 0], [120.205461077, -5.539090708999993, 0], [120.20545969399996, -5.539026321999984, 0], [120.20544343200004, -5.538889009000002, 0], [120.20542685700002, -5.538817773999995, 0], [120.20538669200005, -5.538729483999987, 0], [120.20531604300004, -5.538651216000005, 0], [120.20525373099997, -5.538596708, 0], [120.20518125299998, -5.538548927000022, 0], [120.205100141, -5.538538377999998, 0], [120.20499695499996, -5.538546368000027, 0], [120.20490039100002, -5.538586571999986, 0], [120.20481905500003, -5.5386234619999755, 0], [120.20473282600005, -5.538621354999975, 0], [120.204663761, -5.538566815000024, 0], [120.20461674399996, -5.538497134000011, 0], [120.20460193600002, -5.538408963999984, 0], [120.20459236600004, -5.538286934999974, 0], [120.20458765599994, -5.5382106679999765, 0], [120.20457466300002, -5.538097100000016, 0], [120.204541372, -5.537985123999988, 0], [120.20449262800003, -5.537922202999994, 0], [120.20439997899996, -5.537848918999998, 0], [120.20432407099997, -5.537809589000005, 0], [120.20423819400003, -5.537734637000028, 0], [120.20419279099997, -5.537680207999983, 0], [120.20416103599996, -5.537602124999978, 0], [120.20416321599998, -5.537497094000003, 0], [120.20416512700001, -5.537451362000013, 0], [120.20416034499999, -5.537388648999979, 0], [120.20413521800003, -5.537339402999976, 0], [120.20410326199999, -5.537301979999995, 0], [120.20407813500003, -5.5372527249999735, 0], [120.204066582, -5.537191677999999, 0], [120.20406343100001, -5.537142533999997, 0], [120.20406539099997, -5.537086631000022, 0], [120.204067291, -5.537040900000022, 0], [120.20407940999996, -5.536981656000023, 0], [120.20408804399995, -5.536942733999979, 0], [120.20408822599995, -5.536903762999998, 0], [120.20408351699996, -5.536827505000019, 0], [120.20404493499996, -5.53676124399999, 0], [120.20400121199998, -5.536710211000013, 0], [120.20394558700002, -5.536674373999972, 0], [120.203852697, -5.536650216999988, 0], [120.20376322300001, -5.536620989000028, 0], [120.203710828, -5.5366156630000205, 0], [120.20359767299999, -5.536588021, 0], [120.20350479199999, -5.536562165000021, 0], [120.20341703600002, -5.536526176999985, 0], [120.20339346000003, -5.536505734000002, 0], [120.20337337000001, -5.536463278999975, 0], [120.20336007399999, -5.536414089000004, 0], [120.20335691599996, -5.536366634999979, 0], [120.20335724999995, -5.536295481000025, 0], [120.20335752899996, -5.536236180000003, 0], [120.20335936000004, -5.536207391000005, 0], [120.20337865700003, -5.536058390999983, 0], [120.203380949, -5.535931329999983, 0], [120.20337452900003, -5.535858453999992, 0], [120.203367996, -5.535809287000006, 0], [120.20333104600002, -5.535756595000009, 0], [120.20327220399997, -5.535683462000009, 0], [120.20321669099997, -5.5356239070000015, 0], [120.20314598699997, -5.535557493999988, 0], [120.20311229699996, -5.535530228000027, 0], [120.20301462700002, -5.535445056000015, 0], [120.202955643, -5.5354024249999725, 0], [120.20290849100002, -5.535361540999986, 0], [120.20285126600004, -5.535305359000006, 0], [120.202799174, -5.535237343999995, 0], [120.20274199599999, -5.535171004000006, 0], [120.20269500500001, -5.535096237000005, 0], [120.20266317000005, -5.535033396000017, 0], [120.20262798399995, -5.534965461000013, 0], [120.20261464099997, -5.534926435999978, 0], [120.20253730900004, -5.534831193999992, 0], [120.20248017999995, -5.534754679999992, 0], [120.20239605300003, -5.534666184000002, 0], [120.20232536499998, -5.534596392000026, 0], [120.202230999, -5.534528175999981, 0], [120.20210093699995, -5.534498756999994, 0], [120.201989422, -5.534481287999995, 0], [120.20190826199996, -5.53448090400002, 0], [120.20176273100003, -5.534505635000016, 0], [120.20166295299998, -5.534510241000021, 0], [120.20159700700003, -5.5345099290000235, 0], [120.20151923699996, -5.534507872000006, 0], [120.20146518599995, -5.534495752999987, 0], [120.20139420500004, -5.534488640999996, 0], [120.20132664300002, -5.5344730790000085, 0], [120.20128272900001, -5.534462706999989, 0], [120.20118813900001, -5.534441929000025, 0], [120.20111551000002, -5.534426333999988, 0], [120.20103103999998, -5.534410691000005, 0], [120.200946563, -5.534396737999998, 0], [120.20082653500003, -5.534391083999992, 0], [120.20076228300002, -5.534390780000024, 0], [120.20063209499995, -5.534390164999991, 0], [120.20053401099995, -5.534393088999991, 0], [120.20043932500005, -5.534392642, 0], [120.20037672900003, -5.534399124000004, 0], [120.20020926200004, -5.534415274000025, 0], [120.20014325099999, -5.534428515000002, 0], [120.20006034300002, -5.534441678000007, 0], [120.19991470800005, -5.534488426999985, 0], [120.19980958199994, -5.534550620999994, 0], [120.19973664999998, -5.534597713999972, 0], [120.19970935699996, -5.534648410999978, 0], [120.19970221100004, -5.5347296990000245, 0], [120.19970695300003, -5.534800878999988, 0], [120.19971163900004, -5.534882223000011, 0], [120.19971463599995, -5.534963559999994, 0], [120.19971085600002, -5.535048253000014, 0], [120.19967320299997, -5.535144639000009, 0], [120.19963912399999, -5.535200393000025, 0], [120.19954939599995, -5.5352253770000175, 0], [120.19950714499998, -5.535220099000014, 0], [120.199446609, -5.53514865599999, 0], [120.19936758400002, -5.535055096000008, 0], [120.19928669599994, -5.534997110999996, 0], [120.19918190600004, -5.534988148000025, 0], [120.19906182, -5.534994358000006, 0], [120.19898564200003, -5.535014326999999, 0], [120.19893312600004, -5.535034408999991, 0], [120.19886364000001, -5.535069656000019, 0], [120.19880256299996, -5.5351134160000015, 0], [120.19874314100002, -5.535163962000013, 0], [120.198687189, -5.535197580999977, 0], [120.19864153900005, -5.535195676000001, 0], [120.19856732000005, -5.535158051999986, 0], [120.19853201599994, -5.535115524999981, 0], [120.198488397, -5.5350424719999864, 0], [120.19844467600001, -5.5349914390000094, 0], [120.19836547399996, -5.53493346099998, 0], [120.19829969700004, -5.534899264999979, 0], [120.19820673699996, -5.534890351000001, 0], [120.19811033200006, -5.534896672000002, 0], [120.19804768100005, -5.534915016000014, 0], [120.19800178599996, -5.534967314000028, 0], [120.19796083000006, -5.535046753000017, 0], [120.19792323299998, -5.535131287000013, 0], [120.19786378599997, -5.535186909999993, 0], [120.19779773699997, -5.535210316000018, 0], [120.19776392899996, -5.535208467000018, 0], [120.197726891, -5.5351744069999995, 0], [120.19772216599995, -5.535099838999997, 0], [120.19772249200003, -5.535030372999984, 0], [120.19772621699997, -5.534957544000008, 0], [120.19772843099997, -5.534847427999978, 0], [120.19773396999994, -5.534747498999991, 0], [120.19773447399996, -5.534640763000027, 0], [120.19773494399999, -5.534540810999999, 0], [120.19772172900002, -5.534474669000019, 0], [120.19767456099999, -5.534437174000004, 0], [120.19759849499997, -5.534433426000021, 0], [120.19752901599998, -5.534465291000004, 0], [120.197444227, -5.53451740600002, 0], [120.197384941, -5.5345408439999915, 0], [120.19731720499999, -5.53456255399999, 0], [120.19724447099998, -5.534567288000005, 0], [120.19713458900003, -5.534563379000019, 0], [120.19700774800003, -5.534539501999973, 0], [120.19689639199999, -5.534488149000026, 0], [120.19680350600004, -5.5344656899999904, 0], [120.19669882699998, -5.534432998999989, 0], [120.196622736, -5.534432639999977, 0], [120.19648594399996, -5.534398107000015, 0], [120.19638273600003, -5.534411174000013, 0], [120.196316615, -5.534449832000007, 0], [120.19630113899996, -5.534503973000028, 0], [120.19629881200001, -5.534639498999979, 0], [120.19630870200001, -5.534693759999982, 0], [120.19628141800001, -5.534742757999993, 0], [120.196252405, -5.534798534000004, 0], [120.196191344, -5.534838906999994, 0], [120.19611686099995, -5.534857185000021, 0], [120.19603063399995, -5.534856778000005, 0], [120.19597314600003, -5.534856504999993, 0], [120.19588689399995, -5.534859486000016, 0], [120.19579550200001, -5.5348776929999985, 0], [120.19569055099998, -5.534902606000003, 0], [120.195582339, -5.534902093000028, 0], [120.19548427999996, -5.534899938000024, 0], [120.19539810200001, -5.534889366000016, 0], [120.19534404299998, -5.534878944000013, 0], [120.19531376099997, -5.53484660700002, 0], [120.19504167900004, -5.5349316620000195, 0], [120.19447447599998, -5.535295383000005, 0], [120.19390271300006, -5.536625061999985, 0], [120.19342995199997, -5.538121756999999, 0], [120.19292581000002, -5.539218585000015, 0], [120.19209013299997, -5.540080672999977, 0], [120.190775906, -5.540133695000009, 0], [120.19017345099996, -5.540440391999994, 0], [120.1896729, -5.540230900999973, 0], [120.18903637999995, -5.540284096999983, 0], [120.18895869000005, -5.540883386000019, 0], [120.18908728899999, -5.541389958000025, 0], [120.18915974799995, -5.541896264999991, 0], [120.18883851800001, -5.542550614999982, 0], [120.18836890700004, -5.542923169999995, 0], [120.18871922699998, -5.544030454999984, 0], [120.18934883199995, -5.545438896999997, 0], [120.18851225900005, -5.546617184000013, 0], [120.19037596099997, -5.547260246999997, 0], [120.19314462199998, -5.549268859999984, 0], [120.19404881699995, -5.549839930000019, 0], [120.19533290499999, -5.550713533000021, 0], [120.196232528, -5.551437577999991, 0], [120.19763194799998, -5.550015355000028, 0], [120.19895254899996, -5.548867264000023, 0], [120.20026611900005, -5.547919143000001, 0], [120.20131112399997, -5.54756340900002, 0], [120.20202489200005, -5.547301693999998, 0], [120.20309554200003, -5.546825850000005, 0], [120.20380930900001, -5.5464213820000055, 0], [120.20440411499999, -5.545969329999991, 0], [120.20577248999996, -5.544490868000025, 0], [120.20589877700002, -5.54436545599998, 0], [120.20642429899999, -5.543843573000004, 0], [120.20698230799997, -5.543144962999975, 0], [120.20710351599996, -5.542920625000022, 0], [120.20703768099997, -5.542898284999978, 0], [120.20698538800002, -5.542870930999982, 0], [120.20693823500005, -5.542830046999995, 0], [120.206901227, -5.542789210000024, 0], [120.20689122500005, -5.542758666999987, 0], [120.20686449799996, -5.542689081999981, 0], [120.20685126599994, -5.542626330000019, 0], [120.20684311100001, -5.5425636090000125, 0], [120.20682145199999, -5.542494039000019, 0], [120.20679132800001, -5.542427826999983, 0], [120.206718873, -5.542374960000018, 0], [120.20662957100001, -5.5423067689999925, 0], [120.20655538999995, -5.54226067899998, 0], [120.20634270100004, -5.542183431000012, 0], [120.20620946300005, -5.542111643999988, 0], [120.20614203599996, -5.542067276000012, 0], [120.206084906, -5.541990770999973, 0], [120.206076725, -5.541931429999977, 0], [120.20607879600004, -5.541851814999973, 0], [120.20611130700001, -5.54176894699998, 0], [120.20612014899996, -5.541687667000019, 0], [120.20612044400002, -5.541624986999977, 0], [120.20610553200004, -5.5415588380000145, 0], [120.20604335899998, -5.54147722099998, 0], [120.20595252299995, -5.541376838000019, 0], [120.20588528799999, -5.541291807999983, 0], [120.20583826200004, -5.541223818999981, 0], [120.20577454299996, -5.541110000000003, 0], [120.20573962200001, -5.540984461999983, 0], [120.20571964999999, -5.540916600000003, 0], [120.20567938900001, -5.540848641000025, 0], [120.20564754500003, -5.540789196999981, 0], [120.20558020600004, -5.540726188999997, 0], [120.205495832, -5.540690217000019, 0], [120.20537096400005, -5.5406354109999825, 0], [120.20528499700004, -5.540577401000007, 0], [120.20518048300005, -5.540509138999994, 0], [120.20510644499996, -5.540432545999977, 0], [120.205057775, -5.540356081000027, 0], [120.20502258099998, -5.540288144999977, 0], [120.20501446499998, -5.540216950000001, 0], [120.20501997199995, -5.5401237899999956, 0], [120.205045563, -5.54007647200001, 0], [120.20510331399998, -5.540020840000011, 0], [120.20518120500003, -5.539997488999973, 0], [120.20525225899996, -5.539989348000006, 0], [120.20537570199997, -5.539986542999998, 0], [120.205465505, -5.539948004999985, 0], [120.20553001099995, -5.539894095000022, 0], [120.20563684199999, -5.539828520000015, 0], [120.20575027500001, -5.539798560000008, 0], [120.20587058499996, -5.539743223000016, 0], [120.20590793300005, -5.539711203000024, 0], [120.205942134, -5.539630042999988, 0], [120.20594234099997, -5.539585993000003, 0], [120.20591056299997, -5.539524960999984, 0]]]}}, {"type": "Feature", "properties": {"wadmkc": "Ujung Bulu", "wadmkd": "Tanah Kongkong", "tipadm": 2, "namobj": null, "kdepum": null}, "geometry": {"type": "Polygon", "coordinates": [[[120.18460063999999, -5.558437879999985, 0], [120.18478397199999, -5.558239325999978, 0], [120.18497433000005, -5.557947843000022, 0], [120.185099251, -5.557686101999991, 0], [120.18520632699995, -5.557388668999977, 0], [120.18530745400005, -5.55677000999998, 0], [120.185497811, -5.555681406000019, 0], [120.18562273299995, -5.555270948999976, 0], [120.18581903799998, -5.554943772999991, 0], [120.18596775399999, -5.554741519000004, 0], [120.186199751, -5.554509521, 0], [120.18716383000003, -5.553587876999984, 0], [120.18739924800002, -5.553385896000009, 0], [120.18727075699996, -5.553307373999985, 0], [120.18703519099995, -5.553257405000011, 0], [120.18675679399996, -5.55320743599998, 0], [120.18627852199995, -5.553150329000005, 0], [120.18622141499998, -5.55310036100002, 0], [120.18615003100001, -5.552936177999982, 0], [120.18600012499996, -5.552871932000016, 0], [120.18578597400005, -5.552871932000016, 0], [120.18562179100002, -5.552936177999982, 0], [120.18550757599996, -5.552993285000014, 0], [120.18532197900004, -5.552764857, 0], [120.18524345599997, -5.55262208900001, 0], [120.185136381, -5.5524650450000195, 0], [120.18494364499998, -5.5523722460000045, 0], [120.18478660000005, -5.552307999999982, 0], [120.18462241700001, -5.552307999999982, 0], [120.18442968099998, -5.552336554000021, 0], [120.18422266799996, -5.552379384999995, 0], [120.18403707000004, -5.552393660999996, 0], [120.18384433300002, -5.5523722460000045, 0], [120.18377295000005, -5.55232227800002, 0], [120.18370870399997, -5.552243755000006, 0], [120.18348027599995, -5.552165232999982, 0], [120.1833732, -5.552165232999982, 0], [120.18325184699995, -5.5521438179999905, 0], [120.18304483400004, -5.552022464999993, 0], [120.18287827300003, -5.551979635000009, 0], [120.18279261199996, -5.551917768999999, 0], [120.18262604999995, -5.551822589999972, 0], [120.18250231699994, -5.55177500100001, 0], [120.182435693, -5.551698858999998, 0], [120.18234527300001, -5.551632233000021, 0], [120.18218822899996, -5.551579885000024, 0], [120.18215015700002, -5.551551331999974, 0], [120.18215015700002, -5.55144663599998, 0], [120.18215015700002, -5.5513229030000275, 0], [120.18212636299995, -5.551237243000003, 0], [120.18205497899999, -5.551203929999986, 0], [120.18195979999996, -5.551156342000013, 0], [120.18189793399995, -5.551080199000012, 0], [120.18187889900003, -5.551004056000011, 0], [120.18179799699999, -5.5508565289999865, 0], [120.181679024, -5.550623341999994, 0], [120.18157432700002, -5.550556717000006, 0], [120.181407766, -5.5505186460000004, 0], [120.18129830999999, -5.550428226000008, 0], [120.18124770500003, -5.550350745999992, 0], [120.18103639499998, -5.550602216000016, 0], [120.17983687599997, -5.551374837000026, 0], [120.17931551499998, -5.551657777000003, 0], [120.177200546, -5.552070840999988, 0], [120.17550981600004, -5.552486636000026, 0], [120.175554982, -5.55264637800002, 0], [120.17566205799994, -5.552917636000018, 0], [120.17574771900001, -5.553153203000022, 0], [120.175769134, -5.553303109000012, 0], [120.17581910299998, -5.553474430999984, 0], [120.17588334799996, -5.553602920999992, 0], [120.176040393, -5.5537314119999905, 0], [120.17629737499999, -5.553895594999972, 0], [120.176811338, -5.554138299999977, 0], [120.177641612, -5.554787933, 0], [120.17830310199997, -5.555339967000009, 0], [120.17846014600002, -5.555568396000012, 0], [120.1784887, -5.555673092000006, 0], [120.17851249399996, -5.5558634490000145, 0], [120.17848489000005, -5.556017399999973, 0], [120.17854983400002, -5.556192517999989, 0], [120.17870642000003, -5.556522558999973, 0], [120.17889677699998, -5.5570043999999825, 0], [120.17914661999998, -5.557599265000022, 0], [120.17925369600005, -5.557724187000019, 0], [120.17938456599995, -5.5578312630000255, 0], [120.17953328299996, -5.5578788519999875, 0], [120.179693896, -5.557801519000009, 0], [120.18025307000005, -5.557450549000009, 0], [120.18088957600003, -5.557010348999995, 0], [120.18113941900003, -5.556968708999989, 0], [120.18131787899995, -5.556968708999989, 0], [120.18153797900004, -5.556980606000025, 0], [120.18168074699997, -5.557022245999974, 0], [120.18184730899998, -5.557081733000018, 0], [120.18218995100005, -5.557305401999997, 0], [120.18267536099995, -5.557726565999985, 0], [120.18362300499996, -5.558538101000011, 0], [120.18398602499997, -5.558906295999975, 0], [120.18416675399999, -5.5591169740000055, 0], [120.18417907800006, -5.559135982999976, 0], [120.18418033900002, -5.559137926999995, 0], [120.18418305399996, -5.559133405000011, 0], [120.18460063999999, -5.558437879999985, 0]]]}}, {"type": "Feature", "properties": {"wadmkc": "Ujung Bulu", "wadmkd": "Terang Terang", "tipadm": 2, "namobj": null, "kdepum": null}, "geometry": {"type": "Polygon", "coordinates": [[[120.20293509999999, -5.554964900000016, 0], [120.20266340700005, -5.554626352000014, 0], [120.20116753900004, -5.552463199999977, 0], [120.20129959899998, -5.552206216999991, 0], [120.20152362099998, -5.551728098000012, 0], [120.20156014899999, -5.551289649000012, 0], [120.20156014899999, -5.550939868, 0], [120.20140310500005, -5.550126093000017, 0], [120.20135313599997, -5.549833418999981, 0], [120.20118181500004, -5.54937656300001, 0], [120.20103904799998, -5.549107682999988, 0], [120.20079515299994, -5.548697226000002, 0], [120.20065278200002, -5.5485163870000065, 0], [120.20026611900005, -5.547919143000001, 0], [120.19895254899996, -5.548867264000023, 0], [120.19763194799998, -5.550015355000028, 0], [120.196232528, -5.551437577999991, 0], [120.19581017400003, -5.551883727000018, 0], [120.195111645, -5.553610918000004, 0], [120.19501884700003, -5.553767962999984, 0], [120.194847525, -5.553967837000016, 0], [120.19441208399996, -5.5542747879999865, 0], [120.19359830799999, -5.55483158200002, 0], [120.19212780199996, -5.555738156000018, 0], [120.19289526199998, -5.556573496999988, 0], [120.193436034, -5.557037524999998, 0], [120.19410466299996, -5.557594317999985, 0], [120.19494699200004, -5.558179666000001, 0], [120.195810736, -5.558829258999992, 0], [120.196469847, -5.559343222999985, 0], [120.19696713600001, -5.5598971200000165, 0], [120.19731560000002, -5.560409100000015, 0], [120.19733450000001, -5.560374400000001, 0], [120.19735419999995, -5.56034360000001, 0], [120.19746780000003, -5.560191400000008, 0], [120.19764620000001, -5.560036299999979, 0], [120.19775179999999, -5.559968099999992, 0], [120.19787489999999, -5.559838800000023, 0], [120.19799750000004, -5.55966699999999, 0], [120.19812219999994, -5.559479099999976, 0], [120.19822150000005, -5.559314099999995, 0], [120.19831239999996, -5.559042599999998, 0], [120.1985436, -5.5589052000000265, 0], [120.19857239999999, -5.55887869999998, 0], [120.19857639999998, -5.558870899999988, 0], [120.19873319999999, -5.558762300000012, 0], [120.19887770000003, -5.558651999999995, 0], [120.19921409999995, -5.558429199999978, 0], [120.19940540000005, -5.558303099999989, 0], [120.19952620000004, -5.558155699999986, 0], [120.19969030000004, -5.557941700000015, 0], [120.19984629999999, -5.557731900000022, 0], [120.20000779999998, -5.557522800000015, 0], [120.20017689999997, -5.557294800000022, 0], [120.20033009999997, -5.557077900000024, 0], [120.20050819999994, -5.556855600000006, 0], [120.20082530000002, -5.556658099999993, 0], [120.20095490000006, -5.5565376999999785, 0], [120.20108340000002, -5.5563851, 0], [120.20110050000005, -5.556364499999972, 0], [120.20110550000004, -5.556359100000009, 0], [120.20125499999995, -5.556294499999979, 0], [120.20137150000005, -5.5562583000000245, 0], [120.2015159, -5.556093299999986, 0], [120.2015639, -5.556052299999976, 0], [120.20159000000001, -5.55603339999999, 0], [120.2016916, -5.555943300000024, 0], [120.20173750000004, -5.555800599999998, 0], [120.20198470000003, -5.555654800000013, 0], [120.20206329999996, -5.55561019999999, 0], [120.20214109999995, -5.55557349999998, 0], [120.20223399999998, -5.555538899999988, 0], [120.20273629999997, -5.555115499999999, 0], [120.20293509999999, -5.554964900000016, 0]]]}}]}